{
  "type": "FeatureCollection",
  "features": [
    {
      "type": "Feature",
      "properties": {
        "name": "Rink Isbr&#230; terminus",
        "loc": "<b>Rink Isbr&#230;, GL</b>",
        "date": "August 2014",
        "dtstr": "2014-08-01 00:00:00+00",
        "local_url": "./images/1_Rink_Isbr__230__terminus_b452d73b.jpg",
        "iso_3166": "GL"
      },
      "geometry": {
        "type": "Point",
        "coordinates": [
          -51.731001,
          71.745573
        ]
      },
      "id": 1
    },
    {
      "type": "Feature",
      "properties": {
        "name": "Falls Park",
        "loc": "<b>Sioux Falls, SD</b>",
        "date": "August 2014",
        "dtstr": "2014-08-01 00:00:00+00",
        "local_url": "./images/0_Falls_Park_2f3ab467.jpg",
        "iso_3166": "US"
      },
      "geometry": {
        "type": "Point",
        "coordinates": [
          -96.722513,
          43.558163
        ]
      },
      "id": 0
    },
    {
      "type": "Feature",
      "properties": {
        "name": "Central Park",
        "loc": "<b>New York, NY</b>",
        "date": "July 2013",
        "dtstr": "2013-07-01 00:00:00+00",
        "local_url": "./images/2_Central_Park_d7de109b.jpg",
        "iso_3166": "US"
      },
      "geometry": {
        "type": "Point",
        "coordinates": [
          -73.958168,
          40.78901
        ]
      },
      "id": 2
    },
    {
      "type": "Feature",
      "properties": {
        "name": "Reykjavik from Hallgrimskirkja Cathedral",
        "loc": "<b>Reykjavik, IS</b>",
        "date": "August 2013",
        "dtstr": "2013-08-01 00:00:00+00",
        "local_url": "./images/3_Reykjavik_from_Hallgrimskirkja_Cathedral_1e3608ed.jpg",
        "iso_3166": "IS"
      },
      "geometry": {
        "type": "Point",
        "coordinates": [
          -21.926627,
          64.141711
        ]
      },
      "id": 3
    },
    {
      "type": "Feature",
      "properties": {
        "name": "Uummannaq entrance sign",
        "loc": "<b>Uummannaq, GL </b>",
        "date": "August 2013",
        "dtstr": "2013-08-01 00:00:00+00",
        "local_url": "./images/5_Uummannaq_entrance_sign_053f31cf.jpg",
        "iso_3166": "GL"
      },
      "geometry": {
        "type": "Point",
        "coordinates": [
          -52.112698,
          70.680573
        ]
      },
      "id": 5
    },
    {
      "type": "Feature",
      "properties": {
        "name": "Ripley's Aquarium of Myrtle Beach",
        "loc": "<b>Myrtle Beach, SC</b>",
        "date": "January 2016",
        "dtstr": "2016-01-01 00:00:00+00",
        "local_url": "./images/6_Ripley_s_Aquarium_of_Myrtle_Beach_c9f0d3bb.jpg",
        "iso_3166": "US"
      },
      "geometry": {
        "type": "Point",
        "coordinates": [
          -78.877893,
          33.71589
        ]
      },
      "id": 6
    },
    {
      "type": "Feature",
      "properties": {
        "name": "Ilulissat Bay",
        "loc": "<b>Illulissat, GL</b>",
        "date": "July 2013",
        "dtstr": "2013-07-01 00:00:00+00",
        "local_url": "./images/7_Ilulissat_Bay_1c4e6ca2.jpg",
        "iso_3166": "GL"
      },
      "geometry": {
        "type": "Point",
        "coordinates": [
          -51.094188,
          69.219922
        ]
      },
      "id": 7
    },
    {
      "type": "Feature",
      "properties": {
        "name": "Kangerlugssuaq Fjord",
        "loc": "<b>Kangerlugssuaq, GL</b>",
        "date": "July 2013",
        "dtstr": "2013-07-01 00:00:00+00",
        "local_url": "./images/8_Kangerlugssuaq_Fjord_4b53d959.jpg",
        "iso_3166": "GL"
      },
      "geometry": {
        "type": "Point",
        "coordinates": [
          -50.68745,
          67.005514
        ]
      },
      "id": 8
    },
    {
      "type": "Feature",
      "properties": {
        "name": "Beach Bird",
        "loc": "<b>Myrtle Beach, SC</b>",
        "date": "December 2015",
        "dtstr": "2015-12-01 00:00:00+00",
        "local_url": "./images/9_Beach_Bird_cb07765b.jpg",
        "iso_3166": "US"
      },
      "geometry": {
        "type": "Point",
        "coordinates": [
          -78.908698,
          33.665884
        ]
      },
      "id": 9
    },
    {
      "type": "Feature",
      "properties": {
        "name": "Seabird",
        "loc": "<b>Galveston, TX</b>",
        "date": "January 2015",
        "dtstr": "2015-01",
        "local_url": "./images/10_Seabird_9b7054e2.jpg",
        "iso_3166": "US"
      },
      "geometry": {
        "type": "Point",
        "coordinates": [
          -94.777698,
          29.348381
        ]
      },
      "id": 10
    },
    {
      "type": "Feature",
      "properties": {
        "name": "At the top of the Myrtle Beach SkyWheel",
        "loc": "<b>Myrtle Beach, SC</b>",
        "date": "December 2015",
        "dtstr": "2015-12-01 00:00:00+00",
        "local_url": "./images/11_At_the_top_of_the_Myrtle_Beach_SkyWheel_dd4a3f6e.jpg",
        "iso_3166": "US"
      },
      "geometry": {
        "type": "Point",
        "coordinates": [
          -78.877129,
          33.69389
        ]
      },
      "id": 11
    },
    {
      "type": "Feature",
      "properties": {
        "name": "Galveston Pleasure Pier",
        "loc": "<b>Galveston, TX</b>",
        "date": "December 2014",
        "dtstr": "2014-12-01 00:00:00+00",
        "local_url": "./images/12_Galveston_Pleasure_Pier_69af841d.jpg",
        "iso_3166": "US"
      },
      "geometry": {
        "type": "Point",
        "coordinates": [
          -94.791943,
          29.287188
        ]
      },
      "id": 12
    },
    {
      "type": "Feature",
      "properties": {
        "name": "Galveston Seawall",
        "loc": "<b>Galveston, TX</b>",
        "date": "December 2014",
        "dtstr": "2014-12-01 00:00:00+00",
        "local_url": "./images/13_Galveston_Seawall_352b83d7.jpg",
        "iso_3166": "US"
      },
      "geometry": {
        "type": "Point",
        "coordinates": [
          -94.859836,
          29.247093
        ]
      },
      "id": 13
    },
    {
      "type": "Feature",
      "properties": {
        "name": "University of Kansas",
        "loc": "<b>Lawrence, KS</b>",
        "date": "May 2014",
        "dtstr": "2014-05-01 00:00:00+00",
        "local_url": "./images/14_University_of_Kansas_da11a0f3.jpg",
        "iso_3166": "US"
      },
      "geometry": {
        "type": "Point",
        "coordinates": [
          -95.249305,
          38.956688
        ]
      },
      "id": 14
    },
    {
      "type": "Feature",
      "properties": {
        "name": "Roadside geology",
        "loc": "<b>Kangerlugssuaq, GL</b>",
        "date": "July 2013",
        "dtstr": "2013-07-01 00:00:00+00",
        "local_url": "./images/17_Roadside_geology_3d6084b1.jpg",
        "iso_3166": "GL"
      },
      "geometry": {
        "type": "Point",
        "coordinates": [
          -50.68697,
          67.003121
        ]
      },
      "id": 17
    },
    {
      "type": "Feature",
      "properties": {
        "name": "Cathedral",
        "loc": "<b>Uummannaq, GL</b>",
        "date": "August 2013",
        "dtstr": "2013-08-01 00:00:00+00",
        "local_url": "./images/33_Cathedral_76d6534a.jpg",
        "iso_3166": "GL"
      },
      "geometry": {
        "type": "Point",
        "coordinates": [
          -52.126694,
          70.67429
        ]
      },
      "id": 33
    },
    {
      "type": "Feature",
      "properties": {
        "name": "Rental Toyota Hilux",
        "loc": "<b>Uummannaq, GL</b>",
        "date": "August 2013",
        "dtstr": "2013-08-01 00:00:00+00",
        "local_url": "./images/34_Rental_Toyota_Hilux_089c507b.jpg",
        "iso_3166": "GL"
      },
      "geometry": {
        "type": "Point",
        "coordinates": [
          -52.117364,
          70.678585
        ]
      },
      "id": 34
    },
    {
      "type": "Feature",
      "properties": {
        "name": "Down Fjord",
        "loc": "<b>Rink Isbr&#230;, GL</b>",
        "date": "August 2011",
        "dtstr": "2011-08-01 00:00:00+00",
        "local_url": "./images/35_Down_Fjord_91825b5a.jpg",
        "iso_3166": "GL"
      },
      "geometry": {
        "type": "Point",
        "coordinates": [
          -51.812921,
          71.755058
        ]
      },
      "id": 35
    },
    {
      "type": "Feature",
      "properties": {
        "name": "Santa's Village",
        "loc": "<b>Uummannaq, GL</b>",
        "date": "August 2013",
        "dtstr": "2013-08-01 00:00:00+00",
        "local_url": "./images/36_Santa_s_Village_3c644c9c.jpg",
        "iso_3166": "GL"
      },
      "geometry": {
        "type": "Point",
        "coordinates": [
          -52.142041,
          70.692361
        ]
      },
      "id": 36
    },
    {
      "type": "Feature",
      "properties": {
        "name": "Mark it zero",
        "loc": "<b>Reykjavik, IS</b>",
        "date": "August 2013",
        "dtstr": "2013-08-01 00:00:00+00",
        "local_url": "./images/37_Mark_it_zero_bb8b4738.jpg",
        "iso_3166": "IS"
      },
      "geometry": {
        "type": "Point",
        "coordinates": [
          -21.929535,
          64.145702
        ]
      },
      "id": 37
    },
    {
      "type": "Feature",
      "properties": {
        "name": "Sculpture",
        "loc": "<b>Reykjavik, IS</b>",
        "date": "August 2013",
        "dtstr": "2013-08-01 00:00:00+00",
        "local_url": "./images/38_Sculpture_c63f36ae.jpg",
        "iso_3166": "IS"
      },
      "geometry": {
        "type": "Point",
        "coordinates": [
          -21.941767,
          64.14599
        ]
      },
      "id": 38
    },
    {
      "type": "Feature",
      "properties": {
        "name": "Island of birds",
        "loc": "<b>Reykjavik, IS</b>",
        "date": "August 2013",
        "dtstr": "2013-08-01 00:00:00+00",
        "local_url": "./images/39_Island_of_birds_3c958db0.jpg",
        "iso_3166": "IS"
      },
      "geometry": {
        "type": "Point",
        "coordinates": [
          -21.939597,
          64.144759
        ]
      },
      "id": 39
    },
    {
      "type": "Feature",
      "properties": {
        "name": "Do not pet",
        "loc": "<b>Ilulissat, GL</b>",
        "date": "July 2013",
        "dtstr": "2013-07-01 00:00:00+00",
        "local_url": "./images/40_Do_not_pet_4f83ad08.jpg",
        "iso_3166": "GL"
      },
      "geometry": {
        "type": "Point",
        "coordinates": [
          -51.10596,
          69.211349
        ]
      },
      "id": 40
    },
    {
      "type": "Feature",
      "properties": {
        "name": "Ice melange",
        "loc": "<b>Ilulissat, GL</b>",
        "date": "July 2013",
        "dtstr": "2013-07-01 00:00:00+00",
        "local_url": "./images/41_Ice_melange_88687315.jpg",
        "iso_3166": "GL"
      },
      "geometry": {
        "type": "Point",
        "coordinates": [
          -51.145546,
          69.206479
        ]
      },
      "id": 41
    },
    {
      "type": "Feature",
      "properties": {
        "name": "Glacier terminus",
        "loc": "<b>Kangerdlugssup sermerssua, GL</b>",
        "date": "July 2013",
        "dtstr": "2013-07-01 00:00:00+00",
        "local_url": "./images/42_Glacier_terminus_0eaf36b4.jpg",
        "iso_3166": "GL"
      },
      "geometry": {
        "type": "Point",
        "coordinates": [
          -51.434078,
          71.501695
        ]
      },
      "id": 42
    },
    {
      "type": "Feature",
      "properties": {
        "name": "Beak 'Em",
        "loc": "<b>Topeka, KS</b>",
        "date": "May 2016",
        "dtstr": "2016-05-01 00:00:00+00",
        "local_url": "./images/43_Beak__Em_d2c49fd9.jpg",
        "iso_3166": "US"
      },
      "geometry": {
        "type": "Point",
        "coordinates": [
          -95.666248,
          39.06791
        ]
      },
      "id": 43
    },
    {
      "type": "Feature",
      "properties": {
        "name": "Bench Guards",
        "loc": "<b>San Francisco, CA</b>",
        "date": "March 2016",
        "dtstr": "2016-03-01 00:00:00+00",
        "local_url": "./images/44_Bench_Guards_38dc6da6.jpg",
        "iso_3166": "US"
      },
      "geometry": {
        "type": "Point",
        "coordinates": [
          -122.389229,
          37.791243
        ]
      },
      "id": 44
    },
    {
      "type": "Feature",
      "properties": {
        "name": "Dino @ Sculpture Walk 2015",
        "loc": "<b>Sioux Falls, SD</b>",
        "date": "June 2015",
        "dtstr": "2015-06-01 00:00:00+00",
        "local_url": "./images/45_Dino___Sculpture_Walk_2015_d82bcd2c.jpg",
        "iso_3166": "US"
      },
      "geometry": {
        "type": "Point",
        "coordinates": [
          -96.726887,
          43.548714
        ]
      },
      "id": 45
    },
    {
      "type": "Feature",
      "properties": {
        "name": "Government Canyon outlook",
        "loc": "<b>Helotes, TX</b>",
        "date": "August 2016",
        "dtstr": "2016-08-01 00:00:00+00",
        "local_url": "./images/gc_tx_2016aug08.jpg",
        "iso_3166": "US"
      },
      "geometry": {
        "type": "Point",
        "coordinates": [
          -98.761757,
          29.552878
        ]
      },
      "id": 46
    },
    {
      "type": "Feature",
      "properties": {
        "name": "Sioux Falls at night, from the air",
        "loc": "<b>Sioux Falls, SD</b>",
        "date": "February 2016",
        "dtstr": "2016-02-01 00:00:00+00",
        "local_url": "./images/47_Sioux_Falls_at_night__from_the_air_2d787222.jpg",
        "iso_3166": "US"
      },
      "geometry": {
        "type": "Point",
        "coordinates": [
          -96.5402,
          43.531034
        ]
      },
      "id": 47
    },
    {
      "type": "Feature",
      "properties": {
        "name": "Badlands National Park",
        "loc": "<b>Wall, SD</b>",
        "date": "August 2016",
        "dtstr": "2016-08-28 00:00:00+00",
        "local_url": "./images/49_Badlands_National_Park_3247cc49.jpg",
        "iso_3166": "US"
      },
      "geometry": {
        "type": "Point",
        "coordinates": [
          -102.256,
          43.876
        ]
      },
      "id": 49
    },
    {
      "type": "Feature",
      "properties": {
        "name": "Cabin near Terry Peak",
        "loc": "<b>Lead, SD</b>",
        "date": "August 2016",
        "dtstr": "2016-08-28 00:00:00+00",
        "local_url": "./images/50_Cabin_near_Terry_Peak_a890b1cf.jpg",
        "iso_3166": "US"
      },
      "geometry": {
        "type": "Point",
        "coordinates": [
          -103.859,
          44.331
        ]
      },
      "id": 50
    },
    {
      "type": "Feature",
      "properties": {
        "name": "View of Terry Peak",
        "loc": "<b>Lead, SD</b>",
        "date": "August 2016",
        "dtstr": "2016-08-27 00:00:00+00",
        "local_url": "./images/51_View_of_Terry_Peak_2a2f2510.jpg",
        "iso_3166": "US"
      },
      "geometry": {
        "type": "Point",
        "coordinates": [
          -103.839,
          44.339
        ]
      },
      "id": 51
    },
    {
      "type": "Feature",
      "properties": {
        "name": "Roughlock Falls",
        "loc": "<b>Lead, SD</b>",
        "date": "August 2016",
        "dtstr": "2016-08-27 00:00:00+00",
        "local_url": "./images/53_Roughlock_Falls_518268d9.jpg",
        "iso_3166": "US"
      },
      "geometry": {
        "type": "Point",
        "coordinates": [
          -103.936,
          44.349
        ]
      },
      "id": 53
    },
    {
      "type": "Feature",
      "properties": {
        "name": "Waterfowl on Big Sioux River",
        "loc": "<b>Sioux Falls, SD</b>",
        "date": "September 2016",
        "dtstr": "2016-09-23 00:00:00+00",
        "local_url": "./images/54_Waterfowl_on_Big_Sioux_River_28e08cc0.jpg",
        "iso_3166": "US"
      },
      "geometry": {
        "type": "Point",
        "coordinates": [
          -96.769,
          43.52
        ]
      },
      "id": 54
    },
    {
      "type": "Feature",
      "properties": {
        "name": "Sculpture Walk 2016",
        "loc": "<b>Sioux Falls, SD</b>",
        "date": "September 2016",
        "dtstr": "2016-09-02 00:00:00+00",
        "local_url": "./images/55_Sculpture_Walk_2016_83162d84.jpg",
        "iso_3166": "US"
      },
      "geometry": {
        "type": "Point",
        "coordinates": [
          -96.727,
          43.545
        ]
      },
      "id": 55
    },
    {
      "type": "Feature",
      "properties": {
        "name": "Kool Deadwood Nites 2016",
        "loc": "<b>Deadwood, SD</b>",
        "date": "August 2016",
        "dtstr": "2016-08-26 00:00:00+00",
        "local_url": "./images/56_Kool_Deadwood_Nites_2016_09ba670e.jpg",
        "iso_3166": "US"
      },
      "geometry": {
        "type": "Point",
        "coordinates": [
          -103.73,
          44.377
        ]
      },
      "id": 56
    },
    {
      "type": "Feature",
      "properties": {
        "name": "Disc Golf Course at Centennial Park",
        "loc": "<b>Lawrence, KS</b>",
        "date": "May 2016",
        "dtstr": "2016-05-04 00:00:00+00",
        "local_url": "./images/57_Disc_Golf_Course_at_Centennial_Park_61264b4e.jpg",
        "iso_3166": "US"
      },
      "geometry": {
        "type": "Point",
        "coordinates": [
          -95.265,
          38.968
        ]
      },
      "id": 57
    },
    {
      "type": "Feature",
      "properties": {
        "name": "Maiden Lane",
        "loc": "<b>San Francisco, CA</b>",
        "date": "April 2016",
        "dtstr": "2016-04-01 00:00:00+00",
        "local_url": "./images/58_Maiden_Lane_1c3b0143.jpg",
        "iso_3166": "US"
      },
      "geometry": {
        "type": "Point",
        "coordinates": [
          -122.404,
          37.788
        ]
      },
      "id": 58
    },
    {
      "type": "Feature",
      "properties": {
        "name": "Rain from Dinosaur Park",
        "loc": "<b>Rapid City, SD</b>",
        "date": "March 2016",
        "dtstr": "2016-03-14 00:00:00+00",
        "local_url": "./images/59_Rain_from_Dinosaur_Park_5da5433d.jpg",
        "iso_3166": "US"
      },
      "geometry": {
        "type": "Point",
        "coordinates": [
          -103.245899,
          44.07772
        ]
      },
      "id": 59
    },
    {
      "type": "Feature",
      "properties": {
        "name": "University of Minnesota",
        "loc": "<b>Minneapolis, MN</b>",
        "date": "September 2017",
        "dtstr": "2017-09-11 00:00:00+00",
        "local_url": "./images/umn_campus_2017sep11.jpg",
        "iso_3166": "US"
      },
      "geometry": {
        "type": "Point",
        "coordinates": [
          -93.235262,
          44.975737
        ]
      },
      "id": 60
    },
    {
      "type": "Feature",
      "properties": {
        "name": "Downtown MPLS from Franklin Ave. Bridge",
        "loc": "<b>Minneapolis, MN</b>",
        "date": "September 2017",
        "dtstr": "2017-09-10 00:00:00+00",
        "local_url": "./images/mpls_franklin_2017sep10.jpg",
        "iso_3166": "US"
      },
      "geometry": {
        "type": "Point",
        "coordinates": [
          -93.222441,
          44.964131
        ]
      },
      "id": 61
    },
    {
      "type": "Feature",
      "properties": {
        "name": "Mural",
        "loc": "<b>Minneapolis, MN</b>",
        "date": "September 2017",
        "dtstr": "2017-09-10 00:00:00+00",
        "local_url": "./images/mpls_mural_2017sep10.jpg",
        "iso_3166": "US"
      },
      "geometry": {
        "type": "Point",
        "coordinates": [
          -93.232234,
          44.926403
        ]
      },
      "id": 62
    },
    {
      "type": "Feature",
      "properties": {
        "name": "Downtown MPLS from Witch's Hat Water Tower",
        "loc": "<b>Minneapolis, MN</b>",
        "date": "September 2017",
        "dtstr": "2017-09-11 00:00:00+00",
        "local_url": "./images/mpls_pp_2017sep11.jpg",
        "iso_3166": "US"
      },
      "geometry": {
        "type": "Point",
        "coordinates": [
          -93.212833,
          44.968739
        ]
      },
      "id": 63
    },
    {
      "type": "Feature",
      "properties": {
        "name": "Old Rag Mountain, Shenandoah N.P.",
        "loc": "<b>Etlan, VA</b>",
        "date": "April 2022",
        "dtstr": "2022-04-15 00:00:00+00",
        "local_url": "./images/shenandoah_2022apr15.jpg",
        "iso_3166": "US"
      },
      "geometry": {
        "type": "Point",
        "coordinates": [
          -78.31513572250961,
          38.55312298419059
        ]
      },
      "id": 64
    },
    {
      "type": "Feature",
      "properties": {
        "name": "Angel Rocks Trail",
        "loc": "<b>Fairbanks North Star, AK</b>",
        "date": "August 2019",
        "dtstr": "2019-08-30 00:00:00+00",
        "local_url": "./images/ak_angel_rocks_2019aug30.jpg",
        "iso_3166": "US"
      },
      "geometry": {
        "type": "Point",
        "coordinates": [
          -146.198675,
          65.024581
        ]
      },
      "id": 65
    },
    {
      "type": "Feature",
      "properties": {
        "name": "C17 Globemaster, Phoenix Airfield",
        "loc": "<b>McMurdo Station, AQ</b>",
        "date": "November 2019",
        "dtstr": "2019-11-23 00:00:00+00",
        "local_url": "./images/aq_c17_2019nov23.jpg",
        "iso_3166": "AQ"
      },
      "geometry": {
        "type": "Point",
        "coordinates": [
          166.4931763,
          -77.9537169
        ]
      },
      "id": 66
    },
    {
      "type": "Feature",
      "properties": {
        "name": "Frozen Wall, CRREL Permafrost Research Tunnel",
        "loc": "<b>Fairbanks, AK</b>",
        "date": "August 2019",
        "dtstr": "2019-08-27 00:00:00+00",
        "local_url": "./images/ak_fairbanks_2019aug27.jpg",
        "iso_3166": "US"
      },
      "geometry": {
        "type": "Point",
        "coordinates": [
          -147.6233597,
          64.9512693
        ]
      },
      "id": 67
    },
    {
      "type": "Feature",
      "properties": {
        "name": "Ivan The Terrabus (fg) & Mount Erebus (bg), Phoenix Airfield",
        "loc": "<b>McMurdo Station, AQ</b>",
        "date": "November 2019",
        "dtstr": "2019-11-23 00:00:00+00",
        "local_url": "./images/aq_ivan_erebus_2019nov23.jpg",
        "iso_3166": "AQ"
      },
      "geometry": {
        "type": "Point",
        "coordinates": [
          166.5222943,
          -77.9471519
        ]
      },
      "id": 68
    },
    {
      "type": "Feature",
      "properties": {
        "name": "Welcome to McMurdo",
        "loc": "<b>McMurdo Station, AQ</b>",
        "date": "October 2019",
        "dtstr": "2019-10-25 00:00:00+00",
        "local_url": "./images/aq_mcm_2019oct25.jpg",
        "iso_3166": "AQ"
      },
      "geometry": {
        "type": "Point",
        "coordinates": [
          166.659856,
          -77.846444
        ]
      },
      "id": 69
    },
    {
      "type": "Feature",
      "properties": {
        "name": "McMurdo at Night(ish)",
        "loc": "<b>McMurdo Station, AQ</b>",
        "date": "November 2019",
        "dtstr": "2019-11-03 00:00:00+00",
        "local_url": "./images/aq_mcm_nightish_2019nov03.jpg",
        "iso_3166": "AQ"
      },
      "geometry": {
        "type": "Point",
        "coordinates": [
          166.6585973,
          -77.8485698
        ]
      },
      "id": 70
    },
    {
      "type": "Feature",
      "properties": {
        "name": "View of Observation Hill",
        "loc": "<b>McMurdo Station, AQ</b>",
        "date": "November 2019",
        "dtstr": "2019-11-03 00:00:00+00",
        "local_url": "./images/aq_obhill_2019nov03.jpg",
        "iso_3166": "AQ"
      },
      "geometry": {
        "type": "Point",
        "coordinates": [
          166.665494,
          -77.8390958
        ]
      },
      "id": 71
    },
    {
      "type": "Feature",
      "properties": {
        "name": "Pegasus Crash Site",
        "loc": "<b>McMurdo Station, AQ</b>",
        "date": "January 2019",
        "dtstr": "2019-01-09 00:00:00+00",
        "local_url": "./images/aq_pegasus_2019jan09.jpg",
        "iso_3166": "AQ"
      },
      "geometry": {
        "type": "Point",
        "coordinates": [
          166.4275957,
          -77.9664814
        ]
      },
      "id": 72
    },
    {
      "type": "Feature",
      "properties": {
        "name": "Weather station (before disassembly), Phoenix Airfield",
        "loc": "<b>McMurdo Station, AQ</b>",
        "date": "November 2019",
        "dtstr": "2019-11-20 00:00:00+00",
        "local_url": "./images/aq_phoenix_weather_2019nov20.jpg",
        "iso_3166": "AQ"
      },
      "geometry": {
        "type": "Point",
        "coordinates": [
          166.5605743,
          -77.9483129
        ]
      },
      "id": 73
    },
    {
      "type": "Feature",
      "properties": {
        "name": "Preserved dog biscuits, Scott's Hut",
        "loc": "<b>McMurdo Station, AQ</b>",
        "date": "November 2019",
        "dtstr": "2019-11-19 00:00:00+00",
        "local_url": "./images/aq_scott_biscuits_2019nov19.jpg",
        "iso_3166": "AQ"
      },
      "geometry": {
        "type": "Point",
        "coordinates": [
          166.6401335,
          -77.8458638
        ]
      },
      "id": 74
    },
    {
      "type": "Feature",
      "properties": {
        "name": "Paul & Babe",
        "loc": "<b>Bemidji, MN</b>",
        "date": "July 2020",
        "dtstr": "2020-07-04 00:00:00+00",
        "local_url": "./images/mn_bemidji_2020jul04.jpg",
        "iso_3166": "US"
      },
      "geometry": {
        "type": "Point",
        "coordinates": [
          -94.8811637,
          47.4705194
        ]
      },
      "id": 75
    },
    {
      "type": "Feature",
      "properties": {
        "name": "U.S.-Canada Border, Grand Portage State Park",
        "loc": "<b>Grand Portage, MN</b>",
        "date": "July 2019",
        "dtstr": "2019-07-20 00:00:00+00",
        "local_url": "./images/mn_grand_portage_sp_2019jul20.jpg",
        "iso_3166": "US"
      },
      "geometry": {
        "type": "Point",
        "coordinates": [
          -89.5969059,
          48.0042772
        ]
      },
      "id": 76
    },
    {
      "type": "Feature",
      "properties": {
        "name": "Mississippi River, John A. Latsch State Park",
        "loc": "<b>Winona County, MN</b>",
        "date": "June 2019",
        "dtstr": "2019-06-29 00:00:00+00",
        "local_url": "./images/mn_latsch_2019jun29.jpg",
        "iso_3166": "US"
      },
      "geometry": {
        "type": "Point",
        "coordinates": [
          -91.8378853,
          44.170413
        ]
      },
      "id": 77
    },
    {
      "type": "Feature",
      "properties": {
        "name": "On the loose",
        "loc": "<b>West Cook, MN</b>",
        "date": "July 2019",
        "dtstr": "2019-07-20 00:00:00+00",
        "local_url": "./images/mn_moose_2019jul20.jpg",
        "iso_3166": "US"
      },
      "geometry": {
        "type": "Point",
        "coordinates": [
          -90.7239211,
          47.7594961
        ]
      },
      "id": 78
    },
    {
      "type": "Feature",
      "properties": {
        "name": "The namesake",
        "loc": "<b>Pelican Rapids, MN</b>",
        "date": "May 2021",
        "dtstr": "2021-05-01 00:00:00+00",
        "local_url": "./images/mn_pelican_rapids_2021may01.jpg",
        "iso_3166": "US"
      },
      "geometry": {
        "type": "Point",
        "coordinates": [
          -96.0826611,
          46.5699806
        ]
      },
      "id": 79
    },
    {
      "type": "Feature",
      "properties": {
        "name": "Voyageurs N.P.",
        "loc": "<b>Kabetogama Lake, MN</b>",
        "date": "July 2020",
        "dtstr": "2020-07-03 00:00:00+00",
        "local_url": "./images/mn_voyageursnp_2020jul03.jpg",
        "iso_3166": "US"
      },
      "geometry": {
        "type": "Point",
        "coordinates": [
          -92.8511306,
          48.4363306
        ]
      },
      "id": 80
    },
    {
      "type": "Feature",
      "properties": {
        "name": "Stony Brook University Health Sciences Tower",
        "loc": "<b>Stony Brook, NY</b>",
        "date": "September 2019",
        "dtstr": "2019-09-17 00:00:00+00",
        "local_url": "./images/ny_stonybrook_2019sep17.jpg",
        "iso_3166": "US"
      },
      "geometry": {
        "type": "Point",
        "coordinates": [
          -73.1167611,
          40.9099111
        ]
      },
      "id": 81
    },
    {
      "type": "Feature",
      "properties": {
        "name": "Arthur's Pass N.P.",
        "loc": "<b>Canterbury, NZ</b>",
        "date": "December 2019",
        "dtstr": "2019-12-05 00:00:00+00",
        "local_url": "./images/nz_ap_2019dec05.jpg",
        "iso_3166": "NZ"
      },
      "geometry": {
        "type": "Point",
        "coordinates": [
          171.5952583,
          -43.0183944
        ]
      },
      "id": 82
    },
    {
      "type": "Feature",
      "properties": {
        "name": "Devil's Punchbowl, Arthur's Pass N.P.",
        "loc": "<b>Canterbury, NZ</b>",
        "date": "December 2019",
        "dtstr": "2019-12-05 00:00:00+00",
        "local_url": "./images/nz_ap_devils_punchbowl_2019dec05.jpg",
        "iso_3166": "NZ"
      },
      "geometry": {
        "type": "Point",
        "coordinates": [
          171.5649972,
          -42.9335444
        ]
      },
      "id": 83
    },
    {
      "type": "Feature",
      "properties": {
        "name": "Thoughtful sentiment",
        "loc": "<b>Christchurch, NZ</b>",
        "date": "November 2019",
        "dtstr": "2019-11-24 00:00:00+00",
        "local_url": "./images/nz_chc_2019nov24.jpg",
        "iso_3166": "NZ"
      },
      "geometry": {
        "type": "Point",
        "coordinates": [
          172.6394889,
          -43.5359139
        ]
      },
      "id": 84
    },
    {
      "type": "Feature",
      "properties": {
        "name": "Franz Josef Glacier & Retreat Marker",
        "loc": "<b>Westland District, West Coast, NZ</b>",
        "date": "December 2019",
        "dtstr": "2019-12-02 00:00:00+00",
        "local_url": "./images/nz_franz_josef_2019dec02.jpg",
        "iso_3166": "NZ"
      },
      "geometry": {
        "type": "Point",
        "coordinates": [
          170.1680361,
          -43.4281417
        ]
      },
      "id": 85
    },
    {
      "type": "Feature",
      "properties": {
        "name": "Karekare Beach",
        "loc": "<b>Karekare, NZ</b>",
        "date": "January 2019",
        "dtstr": "2019-01-27 00:00:00+00",
        "local_url": "./images/nz_karekare_2019jan27.JPG",
        "iso_3166": "NZ"
      },
      "geometry": {
        "type": "Point",
        "coordinates": [
          174.4692002,
          -36.9939957
        ]
      },
      "id": 86
    },
    {
      "type": "Feature",
      "properties": {
        "name": "Milford Sound",
        "loc": "<b>Milford Sound, NZ</b>",
        "date": "December 2019",
        "dtstr": "2019-12-01 00:00:00+00",
        "local_url": "./images/nz_milford_2019dec01.jpg",
        "iso_3166": "NZ"
      },
      "geometry": {
        "type": "Point",
        "coordinates": [
          167.920617,
          -44.663644
        ]
      },
      "id": 87
    },
    {
      "type": "Feature",
      "properties": {
        "name": "Pancake Rocks",
        "loc": "<b>Punakaiki, NZ</b>",
        "date": "December 2019",
        "dtstr": "2019-12-04 00:00:00+00",
        "local_url": "./images/nz_pancake_rocks_2019dec04.jpg",
        "iso_3166": "NZ"
      },
      "geometry": {
        "type": "Point",
        "coordinates": [
          171.3262389,
          -42.1141111
        ]
      },
      "id": 88
    },
    {
      "type": "Feature",
      "properties": {
        "name": "Lake Rotorua",
        "loc": "<b>Rotorua, NZ</b>",
        "date": "January 2019",
        "dtstr": "2019-01-29 00:00:00+00",
        "local_url": "./images/nz_rotorua_2019jan29.jpg",
        "iso_3166": "NZ"
      },
      "geometry": {
        "type": "Point",
        "coordinates": [
          176.2091253,
          -38.1142287
        ]
      },
      "id": 89
    },
    {
      "type": "Feature",
      "properties": {
        "name": "Southern Alps",
        "loc": "<b>Southland, NZ</b>",
        "date": "November 2019",
        "dtstr": "2019-11-30 00:00:00+00",
        "local_url": "./images/nz_southland_2019nov30.jpg",
        "iso_3166": "NZ"
      },
      "geometry": {
        "type": "Point",
        "coordinates": [
          168.021531,
          -44.800986
        ]
      },
      "id": 90
    },
    {
      "type": "Feature",
      "properties": {
        "name": "Sugarloaf Scenic Reserve, Overlooking Lyttelton Harbour",
        "loc": "<b>Christchurch, NZ</b>",
        "date": "October 2019",
        "dtstr": "2022-10-21 00:00:00+00",
        "local_url": "./images/nz_sugarloaf_2019oct21.jpg",
        "iso_3166": "NZ"
      },
      "geometry": {
        "type": "Point",
        "coordinates": [
          172.654653,
          -43.602967
        ]
      },
      "id": 91
    },
    {
      "type": "Feature",
      "properties": {
        "name": "Lake Tekapo",
        "loc": "<b>Lake Tekapo, NZ</b>",
        "date": "November 2019",
        "dtstr": "2019-11-28 00:00:00+00",
        "local_url": "./images/nz_tekapo_2019nov28.jpg",
        "iso_3166": "NZ"
      },
      "geometry": {
        "type": "Point",
        "coordinates": [
          170.477619,
          -44.002528
        ]
      },
      "id": 92
    },
    {
      "type": "Feature",
      "properties": {
        "name": "Sisters Peaks and Bend, from Pilot Butte",
        "loc": "<b>Bend, OR</b>",
        "date": "June 2019",
        "dtstr": "2019-06-04 00:00:00+00",
        "local_url": "./images/or_bend_2019jun04.jpg",
        "iso_3166": "US"
      },
      "geometry": {
        "type": "Point",
        "coordinates": [
          -121.283539,
          44.060744
        ]
      },
      "id": 93
    },
    {
      "type": "Feature",
      "properties": {
        "name": "Newberry National Volcanic Monument - Lava field",
        "loc": "<b>Bend, OR</b>",
        "date": "June 2019",
        "dtstr": "2019-06-05 00:00:00+00",
        "local_url": "./images/or_lava_2019jun05.jpg",
        "iso_3166": "US"
      },
      "geometry": {
        "type": "Point",
        "coordinates": [
          -121.359972,
          43.9118111
        ]
      },
      "id": 94
    },
    {
      "type": "Feature",
      "properties": {
        "name": "Lady Bird Lake",
        "loc": "<b>Austin, TX</b>",
        "date": "May 2019",
        "dtstr": "2019-05-25 00:00:00+00",
        "local_url": "./images/tx_austin_2019may25.jpg",
        "iso_3166": "US"
      },
      "geometry": {
        "type": "Point",
        "coordinates": [
          -97.8528262,
          30.3108213
        ]
      },
      "id": 95
    },
    {
      "type": "Feature",
      "properties": {
        "name": "Hitchcock Nature Center",
        "loc": "<b>Honey Creek, IA</b>",
        "date": "April 2018",
        "dtstr": "2018-04-23 00:00:00+00",
        "local_url": "./images/ia_hitchcock_2018apr23.jpg",
        "iso_3166": "US"
      },
      "geometry": {
        "type": "Point",
        "coordinates": [
          -95.8689426,
          41.4111765
        ]
      },
      "id": 96
    },
    {
      "type": "Feature",
      "properties": {
        "name": "Bishop's Castle",
        "loc": "<b>Rye, CO</b>",
        "date": "July 2011",
        "dtstr": "2011-07-31 00:00:00+00",
        "local_url": "./images/co_bishop_2011jul31.jpg",
        "iso_3166": "US"
      },
      "geometry": {
        "type": "Point",
        "coordinates": [
          -105.0983787,
          38.0613651
        ]
      },
      "id": 97
    },
    {
      "type": "Feature",
      "properties": {
        "name": "Sunrise",
        "loc": "<b>New Orlenas, LA</b>",
        "date": "December 2017",
        "dtstr": "2017-12-13 00:00:00+00",
        "local_url": "./images/la_nola_sunrise_2017dec13.jpg",
        "iso_3166": "US"
      },
      "geometry": {
        "type": "Point",
        "coordinates": [
          -90.05459,
          29.961588
        ]
      },
      "id": 98
    }
  ]
}